FLOCK 4BE-13            
1 60512U 24149AW  26168.80491286  .00011373  00000+0  26963-3 0  9998
2 60512  97.3723 253.2224 0002947 257.2466 102.8452 15.41901453102469
FLOCK 4BE-27            
1 60513U 24149AX  26168.78137571  .00007379  00000+0  22350-3 0  9997
2 60513  97.3826 250.6326 0002435 313.6150  46.4890 15.34454110102236
FLOCK 4BE-9             
1 60514U 24149AY  26168.73954469  .00012831  00000+0  31507-3 0  9999
2 60514  97.3795 253.0163 0001388 291.8778  68.2320 15.40809245102406
FLOCK 4BE-6             
1 60516U 24149BA  26168.11880310  .00011573  00000+0  29618-3 0  9998
2 60516  97.3794 251.7484 0002050 295.9275  64.1759 15.39573164102263
FLOCK 4BE-14            
1 60517U 24149BB  26168.75195600  .00013412  00000+0  32704-3 0  9994
2 60517  97.3698 252.5229 0003032 288.7103  71.3815 15.41007625102411
FLOCK 4BE-1             
1 60518U 24149BC  26168.76729179  .00014603  00000+0  33738-3 0  9991
2 60518  97.3784 253.8177 0002878 286.5382  73.5549 15.42616571102466
FLOCK 4BE-28            
1 60519U 24149BD  26168.78064007  .00015340  00000+0  32781-3 0  9992
2 60519  97.3751 254.5574 0002943 279.8005  80.2911 15.44928710102539
IPERDRONE.0             
1 60520U 24149BE  26168.81744157  .00065036  00000+0  61628-3 0  9998
2 60520  97.3780 262.0603 0003674 224.2771 135.8196 15.66733682103018
TRANSPORTER-11 OBJECT BF
1 60521U 24149BF  26168.00288323  .00236073  00000+0  10023-2 0  9991
2 60521  97.3769 263.9270 0006140 233.7952 126.2750 15.84671236103053
CONNECTA IOT-2          
1 60522U 24149BG  26167.85177601  .00003705  00000+0  15598-3 0  9997
2 60522  97.3842 246.0023 0005560 339.3032  20.7980 15.23972937101844
CONNECTA IOT-4          
1 60524U 24149BJ  26168.79128764  .00015376  00000+0  36054-3 0  9996
2 60524  97.3799 253.1686 0003998 281.9105  78.1694 15.42157509102422
ORESAT0.5               
1 60525U 24149BK  26168.76584413  .00016220  00000+0  34442-3 0  9999
2 60525  97.3720 254.7750 0004159 270.7074  89.3698 15.45099012102567
DEIMOS                  
1 60526U 24149BL  26168.79837660  .00015192  00000+0  33225-3 0  9993
2 60526  97.3783 254.9477 0003996 278.4719  81.6076 15.44241347102546
CUAVA-2                 
1 60527U 24149BM  26168.79970521  .00009902  00000+0  28348-3 0  9990
2 60527  97.3727 250.3198 0005183 292.1892  67.8802 15.36129137102265
ERNST                   
1 60528U 24149BN  26168.75488455  .00010874  00000+0  28157-3 0  9995
2 60528  97.3811 252.4787 0004417 295.6188  64.4601 15.39222522102368
TORO                    
1 60530U 24149BQ  26168.77470750  .00001288  00000+0  11867-3 0  9998
2 60530  97.6791 243.4316 0001502  80.8916 279.2476 14.96428096100049
HYPSO-2                 
1 60531U 24149BR  26168.73480443  .00001820  00000+0  15587-3 0  9990
2 60531  97.6810 244.9880 0000325  34.2035 325.9209 14.98790414100132
LEMU NGE                
1 60532U 24149BS  26168.72063212  .00001173  00000+0  11255-3 0  9990
2 60532  97.6842 243.6697 0002000  61.8013 298.3409 14.94956379100038
LEMUR-2-STELLA          
1 60533U 24149BT  26168.74364588  .00008701  00000+0  51289-3 0  9998
2 60533  97.6738 251.2009 0001680  96.0529 264.0893 15.11821344100580
SATELIOT_2              
1 60534U 24149BU  26168.76189450  .00002038  00000+0  18510-3 0  9991
2 60534  97.6833 243.7073 0002153  94.0293 266.1175 14.96365464100052
NIGHTJAR                
1 60535U 24149BV  26168.72618169  .00001855  00000+0  15787-3 0  9991
2 60535  97.6842 245.4261 0001165  78.7166 281.4188 14.99019804142957
LEMUR-2-MARHISYAM       
1 60536U 24149BW  26168.85658693  .00009108  00000+0  54486-3 0  9990
2 60536  97.6878 251.7638 0003268 117.0631 243.0932 15.11271942100587
SATELIOT_4              
1 60537U 24149BX  26168.77259978  .00001323  00000+0  12100-3 0  9993
2 60537  97.6743 243.2454 0003226  58.3637 301.7899 14.96672985100069
PICO-02A021             
1 60538U 24149BY  26167.96674235  .00004540  00000+0  33961-3 0  9993
2 60538  97.6753 246.7992 0004920  28.4787 331.6706 15.03250509 99702
ICEYE-X43               
1 60539U 24149BZ  26168.76264779  .00003234  00000+0  26729-3 0  9994
2 60539  97.6788 245.7190 0008224  83.2602 276.9557 14.99620581100204
HAWK-10A                
1 60540U 24149CA  26168.77139222  .00001549  00000+0  14135-3 0  9996
2 60540  97.6899 244.6725 0004992  76.9230 283.2549 14.96519830100073
UMBRA-09                
1 60541U 24149CB  26168.79252288  .00013542  00000+0  66774-3 0  9999
2 60541  97.6983 256.0051 0001164 242.1894 117.9221 15.18054351100817
QPS-SAR-8 (AMATERU-IV)  
1 60542U 24149CC  26168.79238876  .00003516  00000+0  25796-3 0  9996
2 60542  97.6657 247.9376 0004709 107.0918 253.0823 15.04137403100364
ARCTIC WEATHER SATELLITE
1 60543U 24149CD  26168.75815235  .00000656  00000+0  73938-4 0  9997
2 60543  97.6801 239.2076 0003658 103.5111 256.6514 14.89807353 99380
CAPELLA-15 (ACADIA-5)   
1 60544U 24149CE  26168.79187868  .00002876  00000+0  28616-3 0  9994
2 60544  97.6768 241.6799 0004729  77.1766 282.9981 14.92405098 99940
