OBJECT_NAME,OBJECT_ID,EPOCH,MEAN_MOTION,ECCENTRICITY,INCLINATION,RA_OF_ASC_NODE,ARG_OF_PERICENTER,MEAN_ANOMALY,EPHEMERIS_TYPE,CLASSIFICATION_TYPE,NORAD_CAT_ID,ELEMENT_SET_NO,REV_AT_EPOCH,BSTAR,MEAN_MOTION_DOT,MEAN_MOTION_DDOT
FLOCK 4BE-13,2024-149AW,2026-06-17T19:19:04.471104,15.41901453,.0002947,97.3723,253.2224,257.2466,102.8452,0,U,60512,999,10246,.26963E-3,.11373E-3,0
FLOCK 4BE-27,2024-149AX,2026-06-17T18:45:10.861344,15.34454110,.0002435,97.3826,250.6326,313.6150,46.4890,0,U,60513,999,10223,.2235E-3,.7379E-4,0
FLOCK 4BE-9,2024-149AY,2026-06-17T17:44:56.661216,15.40809245,.0001388,97.3795,253.0163,291.8778,68.2320,0,U,60514,999,10240,.31507E-3,.12831E-3,0
FLOCK 4BE-6,2024-149BA,2026-06-17T02:51:04.587840,15.39573164,.000205,97.3794,251.7484,295.9275,64.1759,0,U,60516,999,10226,.29618473E-3,.11573E-3,0
FLOCK 4BE-14,2024-149BB,2026-06-17T18:02:48.998400,15.41007625,.0003032,97.3698,252.5229,288.7103,71.3815,0,U,60517,999,10241,.32704E-3,.13412E-3,0
FLOCK 4BE-1,2024-149BC,2026-06-17T18:24:54.010656,15.42616571,.0002878,97.3784,253.8177,286.5382,73.5549,0,U,60518,999,10246,.33738E-3,.14603E-3,0
FLOCK 4BE-28,2024-149BD,2026-06-17T18:44:07.302048,15.44928710,.0002943,97.3751,254.5574,279.8005,80.2911,0,U,60519,999,10253,.32781E-3,.1534E-3,0
IPERDRONE.0,2024-149BE,2026-06-17T19:37:06.951648,15.66733682,.0003674,97.3780,262.0603,224.2771,135.8196,0,U,60520,999,10301,.61628E-3,.65036E-3,0
TRANSPORTER-11 OBJECT BF,2024-149BF,2026-06-17T00:04:09.111072,15.84671236,.00061409,97.3769,263.9270,233.7952,126.2750,0,U,60521,999,10305,.10023056E-2,.236073E-2,0
CONNECTA IOT-2,2024-149BG,2026-06-16T20:26:33.447264,15.23972937,.000556,97.3842,246.0023,339.3032,20.7980,0,U,60522,999,10184,.15598385E-3,.3705E-4,0
CONNECTA IOT-4,2024-149BJ,2026-06-17T18:59:27.252096,15.42157509,.0003998,97.3799,253.1686,281.9105,78.1694,0,U,60524,999,10242,.36054E-3,.15376E-3,0
ORESAT0.5,2024-149BK,2026-06-17T18:22:48.932832,15.45099012,.0004159,97.3720,254.7750,270.7074,89.3698,0,U,60525,999,10256,.34442E-3,.1622E-3,0
DEIMOS,2024-149BL,2026-06-17T19:09:39.738240,15.44241347,.0003996,97.3783,254.9477,278.4719,81.6076,0,U,60526,999,10254,.33225E-3,.15192E-3,0
CUAVA-2,2024-149BM,2026-06-17T19:11:34.530144,15.36129137,.0005183,97.3727,250.3198,292.1892,67.8802,0,U,60527,999,10226,.28348E-3,.9902E-4,0
ERNST,2024-149BN,2026-06-17T18:07:02.025120,15.39222522,.0004417,97.3811,252.4787,295.6188,64.4601,0,U,60528,999,10236,.28157E-3,.10874E-3,0
TORO,2024-149BQ,2026-06-17T18:35:34.728000,14.96428096,.0001502,97.6791,243.4316,80.8916,279.2476,0,U,60530,999,10004,.11867E-3,.1288E-4,0
HYPSO-2,2024-149BR,2026-06-17T17:38:07.102752,14.98790414,.0000325,97.6810,244.9880,34.2035,325.9209,0,U,60531,999,10013,.15587E-3,.182E-4,0
LEMU NGE,2024-149BS,2026-06-17T17:17:42.615168,14.94956379,.0002,97.6842,243.6697,61.8013,298.3409,0,U,60532,999,10003,.11255E-3,.1173E-4,0
LEMUR-2-STELLA,2024-149BT,2026-06-17T17:50:51.004032,15.11821344,.000168,97.6738,251.2009,96.0529,264.0893,0,U,60533,999,10058,.51289E-3,.8701E-4,0
SATELIOT_2,2024-149BU,2026-06-17T18:17:07.684800,14.96365464,.0002153,97.6833,243.7073,94.0293,266.1175,0,U,60534,999,10005,.1851E-3,.2038E-4,0
NIGHTJAR,2024-149BV,2026-06-17T17:25:42.098016,14.99019804,.0001165,97.6842,245.4261,78.7166,281.4188,0,U,60535,999,14295,.15787E-3,.1855E-4,0
LEMUR-2-MARHISYAM,2024-149BW,2026-06-17T20:33:29.110752,15.11271942,.0003268,97.6878,251.7638,117.0631,243.0932,0,U,60536,999,10058,.54486E-3,.9108E-4,0
SATELIOT_4,2024-149BX,2026-06-17T18:32:32.620992,14.96672985,.0003226,97.6743,243.2454,58.3637,301.7899,0,U,60537,999,10006,.121E-3,.1323E-4,0
PICO-02A021,2024-149BY,2026-06-16T23:12:06.539040,15.03250509,.000492,97.6753,246.7992,28.4787,331.6706,0,U,60538,999,9970,.33961E-3,.454E-4,0
ICEYE-X43,2024-149BZ,2026-06-17T18:18:12.769056,14.99620581,.0008224,97.6788,245.7190,83.2602,276.9557,0,U,60539,999,10020,.26729E-3,.3234E-4,0
HAWK-10A,2024-149CA,2026-06-17T18:30:48.287808,14.96519830,.0004992,97.6899,244.6725,76.9230,283.2549,0,U,60540,999,10007,.14135E-3,.1549E-4,0
UMBRA-09,2024-149CB,2026-06-17T19:01:13.976832,15.18054351,.0001164,97.6983,256.0051,242.1894,117.9221,0,U,60541,999,10081,.66774E-3,.13542E-3,0
QPS-SAR-8 (AMATERU-IV),2024-149CC,2026-06-17T19:01:02.388864,15.04137403,.0004709,97.6657,247.9376,107.0918,253.0823,0,U,60542,999,10036,.25796E-3,.3516E-4,0
ARCTIC WEATHER SATELLITE,2024-149CD,2026-06-17T18:11:44.363040,14.89807353,.0003658,97.6801,239.2076,103.5111,256.6514,0,U,60543,999,9938,.73938E-4,.656E-5,0
CAPELLA-15 (ACADIA-5),2024-149CE,2026-06-17T19:00:18.317952,14.92405098,.0004729,97.6768,241.6799,77.1766,282.9981,0,U,60544,999,9994,.28616E-3,.2876E-4,0
